NORAD_CAT_ID,OBJECT_NAME,OBJECT_TYPE,EPOCH,MEAN_MOTION,ECCENTRICITY,INCLINATION,RA_OF_ASC_NODE,ARG_OF_PERICENTER,MEAN_ANOMALY,BSTAR,MEAN_MOTION_DOT,MEAN_MOTION_DDOT,TLE_LINE0,TLE_LINE1,TLE_LINE2,SEMIMAJOR_AXIS,PERIOD,APOGEE,PERIGEE,DECAYED
50173.0,STARLINK-3289,PAYLOAD,2022-01-02 16:00:00,15.81290509,0.0001036,53.2178,290.718,85.6615,172.9473,-0.0043513,-0.00799516,0.0,0 STARLINK-3289,1 50173U 21125T   22002.66667824 -.00799516  00000-0 -43513-2 0  9995,2 50173  53.2178 290.7180 0001036  85.6615 172.9473 15.81290509  2883,6704.927,91.065,327.487,326.098,0.0
50173.0,STARLINK-3289,PAYLOAD,2022-01-06 00:58:23,15.76033277,0.000148,53.2194,273.9022,127.8081,232.3075,-0.0026808,-0.00406404,0.0,0 STARLINK-3289,1 50173U 21125T   22006.04054660 -.00406404  00000-0 -26808-2 0  9998,2 50173  53.2194 273.9022 0001480 127.8081 232.3075 15.76033277  3137,6719.829000000002,91.369,342.689,340.7,0.0
50173.0,STARLINK-3289,PAYLOAD,2022-01-06 07:03:51,15.75603948,0.0001509,53.219,272.6427,110.9804,249.1379,-0.0026978,-0.00401549,0.0,0 STARLINK-3289,1 50173U 21125T   22006.29434111 -.00401549  00000-0 -26978-2 0  9991,2 50173  53.2190 272.6427 0001509 110.9804 249.1379 15.75603948  3170,6721.05,91.394,343.92900000000014,341.901,0.0
50173.0,STARLINK-3289,PAYLOAD,2022-01-06 14:40:42,15.75330706,0.0001675999999999,53.2191,271.0682,106.8105,253.31,-0.0019837,-0.0029554,0.0,0 STARLINK-3289,1 50173U 21125T   22006.61160131 -.00295540  00000-0 -19837-2 0  9993,2 50173  53.2191 271.0682 0001676 106.8105 253.3100 15.75330706  3224,6721.8269999999975,91.409,344.819,342.566,0.0
50173.0,STARLINK-3289,PAYLOAD,2022-01-06 22:17:35,15.74591867,0.0001238,53.2186,269.4938,78.3393,281.7767,-0.0035385999999999,-0.00498034,0.0,0 STARLINK-3289,1 50173U 21125T   22006.92888409 -.00498034  00000-0 -35386-2 0  9992,2 50173  53.2186 269.4938 0001238  78.3393 281.7767 15.74591867  6378,6723.93,91.452,346.62699999999984,344.962,0.0
50173.0,STARLINK-3289,PAYLOAD,2022-01-06 23:48:55,15.75266157,0.0001437,53.2191,269.17900000000003,123.8198,236.296,-0.0013631,-0.00204849,0.0,0 STARLINK-3289,1 50173U 21125T   22006.99230770 -.00204849  00000-0 -13631-2 0  9999,2 50173  53.2191 269.1790 0001437 123.8198 236.2960 15.75266157  3286,6722.011,91.413,344.842,342.91,0.0
50173.0,STARLINK-3289,PAYLOAD,2022-01-09 22:00:00,15.73309024,0.0001058,53.2176,254.7124,94.5389,275.8075,-0.00060985,-0.00085736,0.0,0 STARLINK-3289,1 50173U 21125T   22009.91667824 -.00085736  00000-0 -60985-3 0  9995,2 50173  53.2176 254.7124 0001058  94.5389 275.8075 15.73309024  3741,6727.584,91.527,350.161,348.73800000000006,0.0
50173.0,STARLINK-3289,PAYLOAD,2022-01-10 14:00:01,15.73176834,0.0001250999999999,53.2174,251.4115,103.7786,84.5456,-0.00056589,-0.00079216,0.0,0 STARLINK-3289,1 50173U 21125T   22010.58334491 -.00079216  00000-0 -56589-3 0  9992,2 50173  53.2174 251.4115 0001251 103.7786  84.5456 15.73176834  3729,6727.9609999999975,91.535,350.668,348.985,0.0
50173.0,STARLINK-3289,PAYLOAD,2022-01-10 22:00:00,15.73098735,0.0001364,53.2177,249.7641,93.38,183.814,0.00012014,0.00016201,0.0,0 STARLINK-3289,1 50173U 21125T   22010.91667824  .00016201  00000-0  12014-3 0  9996,2 50173  53.2177 249.7641 0001364  93.3800 183.8140 15.73098735  3739,6728.184,91.539,350.967,349.131,0.0
50173.0,STARLINK-3289,PAYLOAD,2022-01-11 06:00:00,15.73133873,0.0001256,53.2176,248.1148,90.9176,275.0843,0.00010082,0.00013513,0.0,0 STARLINK-3289,1 50173U 21125T   22011.25001157  .00013513  00000-0  10082-3 0  9991,2 50173  53.2176 248.1148 0001256  90.9176 275.0843 15.73133873  3953,6728.084,91.537,350.7940000000001,349.10400000000016,0.0
50173.0,STARLINK-3289,PAYLOAD,2022-01-11 14:00:01,15.73133282,0.0001315999999999,53.2177,246.4639,101.9595,352.9002,0.0005276,0.00073866,0.0,0 STARLINK-3289,1 50173U 21125T   22011.58334491  .00073866  00000-0  52760-3 0  9993,2 50173  53.2177 246.4639 0001316 101.9595 352.9002 15.73133282  3726,6728.085,91.537,350.836,349.065,0.0
50173.0,STARLINK-3289,PAYLOAD,2022-01-11 22:00:00,15.73181747,0.0001291,53.2174,244.8166,91.6914,92.0495,0.00015651,0.00021384,0.0,0 STARLINK-3289,1 50173U 21125T   22011.91667824  .00021384  00000-0  15651-3 0  9995,2 50173  53.2174 244.8166 0001291  91.6914  92.0495 15.73181747  4067,6727.946999999999,91.534,350.681,348.944,0.0
50173.0,STARLINK-3289,PAYLOAD,2022-01-12 14:00:01,15.7322032,0.0001215,53.2173,241.5158,104.2868,257.3151,0.00048104,0.00067494,0.0,0 STARLINK-3289,1 50173U 21125T   22012.58334491  .00067494  00000-0  48104-3 0  9991,2 50173  53.2173 241.5158 0001215 104.2868 257.3151 15.73220320  3735,6727.837,91.532,350.52,348.885,0.0
50173.0,STARLINK-3289,PAYLOAD,2022-01-13 14:00:01,15.73260383,0.0001051,53.2173,236.5676,103.2223,165.2795,-0.00023383,-0.0003339,0.0,0 STARLINK-3289,1 50173U 21125T   22013.58334491 -.00033390  00000-0 -23383-3 0  9994,2 50173  53.2173 236.5676 0001051 103.2223 165.2795 15.73260383  4326,6727.723000000001,91.53,350.295,348.881,0.0
50173.0,STARLINK-3289,PAYLOAD,2022-01-13 22:00:00,15.73223932,0.0001223,53.2169,234.9201,88.4279,269.0737,3.6743e-05,4.545e-05,0.0,0 STARLINK-3289,1 50173U 21125T   22013.91667824  .00004545  00000-0  36743-4 0  9993,2 50173  53.2169 234.9201 0001223  88.4279 269.0737 15.73223932  3690,6727.8269999999975,91.532,350.515,348.869,0.0
50173.0,STARLINK-3289,PAYLOAD,2022-01-14 06:00:00,15.73403267,0.0001154,53.2167,233.2645,90.6965,355.7393,-0.0048273999999999,-0.00634799,0.0,0 STARLINK-3289,1 50173U 21125T   22014.25001157 -.00634799  00000-0 -48274-2 0  9994,2 50173  53.2167 233.2645 0001154  90.6965 355.7393 15.73403267  4426,6727.316,91.521,349.957,348.404,0.0
50173.0,STARLINK-3289,PAYLOAD,2022-01-14 14:00:01,15.73231365,0.0001296,53.2166,231.6193,102.6447,72.7547,-0.00016959,-0.00024384,0.0,0 STARLINK-3289,1 50173U 21125T   22014.58334491 -.00024384  00000-0 -16959-3 0  9999,2 50173  53.2166 231.6193 0001296 102.6447  72.7547 15.73231365  4482,6727.806,91.531,350.543,348.7990000000001,0.0
50173.0,STARLINK-3289,PAYLOAD,2022-01-14 22:00:00,15.73178002,0.000115,53.2166,229.9719,87.2708,177.1051,0.00029438,0.00040856,0.0,0 STARLINK-3289,1 50173U 21125T   22014.91667824  .00040856  00000-0  29438-3 0  9991,2 50173  53.2166 229.9719 0001150  87.2708 177.1051 15.73178002  3727,6727.958000000001,91.534,350.597,349.0490000000001,0.0
50173.0,STARLINK-3289,PAYLOAD,2022-01-15 06:00:00,15.7326953,0.0001055,53.2164,228.3215,88.6597,264.6407,-0.00066229,-0.00092821,0.0,0 STARLINK-3289,1 50173U 21125T   22015.25001157 -.00092821  00000-0 -66229-3 0  9990,2 50173  53.2164 228.3215 0001055  88.6597 264.6407 15.73269530  4583,6727.696999999999,91.529,350.272,348.852,0.0
50173.0,STARLINK-3289,PAYLOAD,2022-01-15 14:00:01,15.73306389,0.0001197,53.2169,226.6658,92.391,349.8779,-0.001814,-0.00248944,0.0,0 STARLINK-3289,1 50173U 21125T   22015.58335648 -.00248944  00000-0 -18140-2 0  9998,2 50173  53.2169 226.6658 0001197  92.3910 349.8779 15.73306389  3725,6727.592,91.527,350.26199999999994,348.652,0.0
50173.0,STARLINK-3289,PAYLOAD,2022-01-15 22:00:01,15.73161911,0.0001187,53.2159,225.0237,81.4145,89.8144,0.00042117,0.00058806,0.0,0 STARLINK-3289,1 50173U 21125T   22015.91668981  .00058806  00000-0  42117-3 0  9990,2 50173  53.2159 225.0237 0001187  81.4145  89.8144 15.73161911  4692,6728.004,91.535,350.667,349.07,0.0
50173.0,STARLINK-3289,PAYLOAD,2022-01-16 14:00:01,15.73225401,0.0001184,53.2156,221.7228,95.9474,253.0824,-0.00017193,-0.00024704,0.0,0 STARLINK-3289,1 50173U 21125T   22016.58334491 -.00024704  00000-0 -17193-3 0  9998,2 50173  53.2156 221.7228 0001184  95.9474 253.0824 15.73225401  4790,6727.823,91.532,350.4840000000001,348.891,0.0
50173.0,STARLINK-3289,PAYLOAD,2022-01-16 22:00:00,15.73180942,9.66e-05,53.2157,220.0755,79.6959,358.2561,-0.00023445,-0.00033364,0.0,0 STARLINK-3289,1 50173U 21125T   22016.91667824 -.00033364  00000-0 -23445-3 0  9993,2 50173  53.2157 220.0755 0000966  79.6959 358.2561 15.73180942  3719,6727.95,91.534,350.464,349.165,0.0
50173.0,STARLINK-3289,PAYLOAD,2022-01-17 00:00:00,15.73143311,9.07e-05,53.2157,219.6632,73.988,116.1993,0.00029491,0.0004087,0.0,0 STARLINK-3289,1 50173U 21125T   22017.00001157  .00040870  00000-0  29491-3 0  9990,2 50173  53.2157 219.6632 0000907  73.9880 116.1993 15.73143311  4868,6728.057,91.536,350.532,349.31199999999984,0.0
50173.0,STARLINK-3289,PAYLOAD,2022-01-17 14:00:01,15.73140674,0.0001033,53.2156,216.7747,88.9406,166.7691,0.00024874,0.00034343,0.0,0 STARLINK-3289,1 50173U 21125T   22017.58334491  .00034343  00000-0  24874-3 0  9991,2 50173  53.2156 216.7747 0001033  88.9406 166.7691 15.73140674  4958,6728.064,91.537,350.624,349.2340000000001,0.0
50173.0,STARLINK-3289,PAYLOAD,2022-01-17 22:00:00,15.731396900000002,0.0001118,53.2153,215.1273,74.4355,270.1407,0.00051847,0.00072586,0.0,0 STARLINK-3289,1 50173U 21125T   22017.91667824  .00072586  00000-0  51847-3 0  9998,2 50173  53.2153 215.1273 0001118  74.4355 270.1407 15.73139690  3702,6728.066999999999,91.537,350.684,349.18,0.0
50173.0,STARLINK-3289,PAYLOAD,2022-01-18 14:00:01,15.73241438,0.000102,53.2152,211.8264,87.4582,74.9472,0.00040915,0.00057296,0.0,0 STARLINK-3289,1 50173U 21125T   22018.58334491  .00057296  00000-0  40915-3 0  9998,2 50173  53.2152 211.8264 0001020  87.4582  74.9472 15.73241438  5115,6727.776999999999,91.531,350.32800000000015,348.956,0.0
50173.0,STARLINK-3289,PAYLOAD,2022-01-18 22:00:00,15.73292118,0.0001179,53.2154,210.1788,70.1132,181.2956,-0.00018298,-0.00026321,0.0,0 STARLINK-3289,1 50173U 21125T   22018.91667824 -.00026321  00000-0 -18298-3 0  9990,2 50173  53.2154 210.1788 0001179  70.1132 181.2956 15.73292118  3696,6727.6330000000025,91.528,350.291,348.704,0.0
50173.0,STARLINK-3289,PAYLOAD,2022-01-19 06:00:02,15.73281555,0.0001229,53.2155,208.5272,76.9965,263.516,-0.00070623,-0.0009892,0.0,0 STARLINK-3289,1 50173U 21125T   22019.25002315 -.00098920  00000-0 -70623-3 0  9990,2 50173  53.2155 208.5272 0001229  76.9965 263.5160 15.73281555  5214,6727.663000000001,91.528,350.35400000000016,348.701,0.0
